{
  "norad_id": 67538,
  "name": "STARLINK-36397",
  "history": [
    {
      "epoch": "2026-03-28T15:41:38.230080Z",
      "apogee_km": 344.99783346539243,
      "perigee_km": 342.93818049125457,
      "latitude_deg": 2.871929956972171e-05,
      "longitude_deg": -88.03905922069904,
      "height_km": 347.1264743310476,
      "semi_major_axis_km": 6722.105006978323,
      "eccentricity": 0.0001532,
      "inclination_deg": 97.2859,
      "raan_deg": 333.4415,
      "arg_perigee_deg": 89.5873,
      "mean_anomaly_deg": 270.5568,
      "mean_motion_rev_day": 15.7523308
    },
    {
      "epoch": "2026-03-29T03:53:29.075712Z",
      "apogee_km": 344.6326789688701,
      "perigee_km": 342.76669710427086,
      "latitude_deg": -3.0922467588059526e-05,
      "longitude_deg": 89.03155974515225,
      "height_km": 346.4045741642453,
      "semi_major_axis_km": 6721.83668803657,
      "eccentricity": 0.0001388,
      "inclination_deg": 97.2858,
      "raan_deg": 333.9749,
      "arg_perigee_deg": 60.3483,
      "mean_anomaly_deg": 299.792,
      "mean_motion_rev_day": 15.753274
    }
  ]
}